EUTELSAT QUANTUM        
1 49056U 21069B   25223.19296025  .00000127  00000+0  00000+0 0  9998
2 49056   0.0525 281.2175 0002122 234.4450 281.3905  1.00270873 14813
EUTELSAT KONNECT VHTS   
1 53765U 22110A   25222.82717312  .00000018  00000+0  00000+0 0  9993
2 53765   0.0556 101.2468 0002725  32.5158 126.2586  1.00268548 10674
EUTELSAT HOTBIRD 13F    
1 54048U 22134A   25222.75778179  .00000088  00000+0  00000+0 0  9991
2 54048   0.0584 281.9523 0001874  80.7494 242.5577  1.00270919 10329
EUTELSAT HOTBIRD 13G    
1 54225U 22146A   25222.75778179  .00000088  00000+0  00000+0 0  9991
2 54225   0.0548 247.4474 0002123 290.9349  66.8937  1.00271164 10106
EUTELSAT 10B            
1 54259U 22157A   25222.82864647  .00000069  00000+0  00000+0 0  9993
2 54259   0.0500  98.1227 0001589   9.2013 160.5364  1.00270117  9934
EUTELSAT 36D            
1 59346U 24059A   25222.26269866  .00000157  00000+0  00000+0 0  9996
2 59346   0.0198 117.8371 0000334  48.8965 282.6757  1.00271064  5020
